OBJECT_NAME,OBJECT_ID,EPOCH,MEAN_MOTION,ECCENTRICITY,INCLINATION,RA_OF_ASC_NODE,ARG_OF_PERICENTER,MEAN_ANOMALY,EPHEMERIS_TYPE,CLASSIFICATION_TYPE,NORAD_CAT_ID,ELEMENT_SET_NO,REV_AT_EPOCH,BSTAR,MEAN_MOTION_DOT,MEAN_MOTION_DDOT
HST,1990-037B,2026-06-02T08:13:52.267584,15.30586461,.00017007,28.4711,182.0162,354.7953,5.2625,0,U,20580,999,78629,.18209235E-3,.5773E-4,0
POLAR,1996-013A,2026-06-03T04:08:55.000320,1.29846107,.6456542,79.8387,227.2170,209.5637,88.9587,0,U,23802,999,14467,0,.117E-5,0
SWAS,1998-071A,2026-06-04T03:51:36.046368,15.09531404,.00086915,69.8968,261.1087,272.1435,87.8734,0,U,25560,999,49530,.31582664E-3,.4979E-4,0
CXO,1999-040B,2026-06-05T03:40:54.852960,0.37796078,.78559378,55.9514,117.0331,310.2940,0.1967,0,U,25867,999,1727,0,.679E-5,0
XMM-NEWTON,1999-066A,2026-06-06T09:05:24.562464,0.50125302,.46783319,64.5482,283.1267,65.0797,0.1118,0,U,25989,999,2295,0,.96E-6,0
TERRA,1999-068A,2026-06-04T06:50:27.145824,14.61092716,.00008103,97.9462,205.3422,263.3577,185.5303,0,U,25994,999,40772,.10891886E-3,.491E-5,0
CLUSTER II-FM7 (SAMBA),2000-041A,2026-06-05T23:36:57.501504,0.44829937,.90409651,149.8917,48.5803,265.6480,0.0292,0,U,26410,999,2025,0,.4453E-4,0
CLUSTER II-FM8 (TANGO),2000-045B,2026-05-30T10:18:46.567296,0.44418197,.90360595,150.1271,48.5941,265.4393,3.5087,0,U,26464,999,2023,0,.4404E-4,0
ODIN,2001-007A,2026-06-04T04:28:00.663456,15.71608948,.00063683,97.3862,195.3329,160.3716,199.7793,0,U,26702,999,38735,.12424464E-2,.162235E-2,0
TIMED,2001-055B,2026-06-03T15:02:58.009056,14.95260030,.0000349,74.0681,262.3202,13.3633,346.7560,0,U,26998,999,32879,.15003E-3,.1612E-4,0
CORIOLIS,2003-001A,2026-06-04T02:10:33.711744,14.19941104,.00128653,98.7126,162.1754,249.0733,110.9067,0,U,27640,999,21236,.66958056E-4,.99E-6,0
SORCE,2003-004A,2026-06-03T22:08:55.017600,15.03637583,.00184293,39.9921,337.3518,313.8415,46.0856,0,U,27651,999,26990,.24355879E-3,.3252E-4,0
MOST,2003-031D,2026-06-03T23:26:25.850976,14.21319662,.0008771,98.7043,162.8868,293.5336,66.4920,0,U,27843,999,18883,.54460857E-4,.75E-6,0
SCISAT 1,2003-036A,2026-06-04T02:59:45.333600,14.81434301,.00087101,73.9291,197.2957,265.8252,94.1929,0,U,27858,999,22951,.9077535E-4,.674E-5,0
SWIFT,2004-047A,2026-05-31T18:26:25.832256,15.66645040,.00032893,20.5544,311.3972,74.7681,285.3128,0,U,28485,999,18428,.56851703E-3,.63707E-3,0
HINODE (SOLAR-B),2006-041A,2026-06-04T05:45:57.843648,14.68604359,.00166902,98.0549,171.5836,333.7403,26.2954,0,U,29479,999,5297,.17310835E-3,.958E-5,0
SHIJIAN-6 02A (SJ-6 02A),2006-046A,2026-06-04T07:03:17.578080,15.16784532,.00034572,97.6363,196.2644,154.3268,205.8137,0,U,29505,999,7031,.24845946E-3,.4811E-4,0
SHIJIAN-6 02B (SJ-6 02B),2006-046B,2026-06-04T06:48:03.116160,15.01342638,.00142692,97.7155,184.4214,98.2644,262.0199,0,U,29506,999,6880,.15240271E-3,.1906E-4,0
FGRST (GLAST),2008-029A,2026-06-03T19:19:36.305184,15.23873209,.0008323,25.5832,297.3955,165.4583,194.6195,0,U,33053,999,99379,.15062E-3,.4081E-4,0
SDO,2010-005A,2026-06-03T07:59:12.877152,1.00271499,.00013215,34.6232,86.5527,44.7554,138.3260,0,U,36395,999,5992,0,-.74E-6,0
CRYOSAT 2,2010-013A,2026-06-04T06:17:45.822624,14.51895429,.00022796,92.0345,274.1608,85.4161,274.7306,0,U,36508,999,85620,.40484914E-4,.166E-5,0
X-SAT,2011-015C,2026-06-04T05:42:02.033856,14.25201847,.00147533,98.3506,132.8786,25.6495,334.5415,0,U,37389,999,78583,.19633485E-4,.5E-7,0
GCOM-W1 (SHIZUKU),2012-025A,2026-06-03T10:42:35.218080,14.57110883,.0001854,98.2019,95.2103,85.6987,27.7042,0,U,38337,999,74703,.13479E-3,.562E-5,0
NUSTAR,2012-031A,2026-06-04T08:00:19.999584,15.08669676,.00089771,6.0253,130.5286,273.7019,9.7993,0,U,38358,999,130,.11128119E-2,.18884E-3,0
NEOSSAT,2013-009D,2026-06-04T02:36:08.651808,14.35821814,.00098334,98.4175,335.4525,287.6281,72.3831,0,U,39089,999,69486,.72145162E-4,.166E-5,0
BRITE-AUSTRIA,2013-009F,2026-06-04T01:03:13.912128,14.36536752,.00089685,98.3993,334.8055,280.8846,79.1332,0,U,39091,999,69516,.88188305E-4,.216E-5,0
IRIS,2013-033A,2026-06-04T00:47:55.581216,14.85857262,.00245613,97.9336,354.3515,5.6073,354.5412,0,U,39197,999,69842,.13760706E-3,.1148E-4,0
HISAKI (SPRINT-A),2013-049A,2026-06-01T10:35:23.417664,13.55542806,.01369077,29.7215,300.0649,249.2755,109.3095,0,U,39253,999,62928,.11299156E-3,.151E-5,0
CASSIOPE,2013-055A,2026-06-04T02:26:06.104256,15.24017002,.02970238,80.9147,82.5959,106.2984,257.1134,0,U,39265,999,66567,.47326249E-3,.42676E-3,-.55731E-6
STSAT-3,2013-066G,2026-06-04T06:16:20.838720,15.02674159,.00107766,97.6209,125.3596,79.0824,281.1613,0,U,39422,999,68226,.33651953E-3,.4434E-4,0
SWARM B,2013-067A,2026-06-04T05:40:34.666176,15.28469490,.00034082,87.7438,346.2521,93.7053,266.4586,0,U,39451,999,68126,.13101879E-3,.3663E-4,0
